ONEWEB-0159             
1 48062U 21025W   25039.93975810  .00000081  00000+0  18639-3 0  9999
2 48062  87.8875  58.2669 0001886  84.7314 275.4030 13.13472304188850
ONEWEB-0164             
1 48063U 21025X   25039.76993329 -.00000212  00000+0 -61491-3 0  9998
2 48063  87.8875  58.3115 0001927  95.2805 264.8544 13.13472636188812
ONEWEB-0167             
1 48064U 21025Y   25039.95219674  .00004822  00000+0  13164-1 0  9995
2 48064  87.8884  58.2923 0002637  84.1479 275.9950 13.13459106188824
ONEWEB-0166             
1 48065U 21025Z   25039.74455507  .00000131  00000+0  32396-3 0  9999
2 48065  87.8873  58.3062 0001724  85.9457 274.1869 13.13470907188876
ONEWEB-0151             
1 48066U 21025AA  25039.74614147  .00000048  00000+0  95307-4 0  9996
2 48066  87.8874  58.3250 0001993  93.4888 266.6469 13.13470648188815
ONEWEB-0170             
1 48067U 21025AB  25039.75406564 -.00000129  00000+0 -38699-3 0  9992
2 48067  87.8877  58.3274 0002116 106.2212 253.9150 13.13468042188773
ONEWEB-0168             
1 48068U 21025AC  25039.96832818  .00000207  00000+0  53104-3 0  9994
2 48068  87.8881  58.2616 0001883  89.4748 270.6597 13.13471668188818
ONEWEB-0173             
1 48069U 21025AD  25039.96039034  .00000314  00000+0  82572-3 0  9994
2 48069  87.8879  58.2721 0002312  86.9273 273.2120 13.13471178189050
